{"type": "FeatureCollection", "features": [ {"type": "Feature", "properties": {"norad_id": 30676, "name": "FENGYUN 1C DEB", "group": "fengyun-1c-debris", "lat": 56.84192164767084, "lon": 172.16048734804318, "alt_km": 739.0920842891983, "timestamp": "2025-12-26T23:26:42.406298+00:00", "meta": {"OBJECT_NAME": "FENGYUN 1C DEB", "OBJECT_ID": "1999-025AQJ", "EPOCH": "2025-12-24T11:46:03.436320", "MEAN_MOTION": 13.73943621, "ECCENTRICITY": 0.04719218, "INCLINATION": 98.2658, "RA_OF_ASC_NODE": 182.8553, "ARG_OF_PERICENTER": 16.4578, "MEAN_ANOMALY": 345.1319, "EPHEMERIS_TYPE": 0, "CLASSIFICATION_TYPE": "U", "NORAD_CAT_ID": 30676, "ELEMENT_SET_NO": 999, "REV_AT_EPOCH": 94085, "BSTAR": 0.00067072182, "MEAN_MOTION_DOT": 1.377e-05, "MEAN_MOTION_DDOT": 0}, "tle": {"line1": "1 30676U 99025AQJ 25358.49031755  .00001377  00000+0  67072-3 0  9996", "line2": "2 30676  98.2658 182.8553 0471921  16.4578 345.1319 13.73943621940850"}}, "geometry": {"type": "Point", "coordinates": [172.16048734804318, 56.84192164767084]}}, {"type": "Feature", "properties": {"norad_id": 30677, "name": "FENGYUN 1C DEB", "group": "fengyun-1c-debris", "lat": 26.14356565742157, "lon": -130.38923901660158, "alt_km": 716.2126803754318, "timestamp": "2025-12-26T23:26:42.406307+00:00", "meta": {"OBJECT_NAME": "FENGYUN 1C DEB", "OBJECT_ID": "1999-025AQK", "EPOCH": "2025-12-26T15:05:17.627136", "MEAN_MOTION": 14.38237576, "ECCENTRICITY": 0.0066718, "INCLINATION": 98.2537, "RA_OF_ASC_NODE": 45.1905, "ARG_OF_PERICENTER": 162.8251, "MEAN_ANOMALY": 348.9123, "EPHEMERIS_TYPE": 0, "CLASSIFICATION_TYPE": "U", "NORAD_CAT_ID": 30677, "ELEMENT_SET_NO": 999, "REV_AT_EPOCH": 98179, "BSTAR": 0.001096286, "MEAN_MOTION_DOT": 3.378e-05, "MEAN_MOTION_DDOT": 0}, "tle": {"line1": "1 30677U 99025AQK 25360.62867624  .00003378  00000+0  10963-2 0  9996", "line2": "2 30677  98.2537  45.1905 0066718 162.8251 348.9123 14.38237576981796"}}, "geometry": {"type": "Point", "coordinates": [-130.38923901660158, 26.14356565742157]}}, {"type": "Feature", "properties": {"norad_id": 30678, "name": "FENGYUN 1C DEB", "group": "fengyun-1c-debris", "lat": 8.903798863070064, "lon": -39.22831362479234, "alt_km": 863.3702892994143, "timestamp": "2025-12-26T23:26:42.406316+00:00", "meta": {"OBJECT_NAME": "FENGYUN 1C DEB", "OBJECT_ID": "1999-025AQL", "EPOCH": "2025-12-25T20:41:11.691168", "MEAN_MOTION": 14.24329193, "ECCENTRICITY": 0.00709324, "INCLINATION": 99.0798, "RA_OF_ASC_NODE": 321.0556, "ARG_OF_PERICENTER": 192.0009, "MEAN_ANOMALY": 223.3605, "EPHEMERIS_TYPE": 0, "CLASSIFICATION_TYPE": "U", "NORAD_CAT_ID": 30678, "ELEMENT_SET_NO": 999, "REV_AT_EPOCH": 96062, "BSTAR": 0.0028418555, "MEAN_MOTION_DOT": 6.698e-05, "MEAN_MOTION_DDOT": 0}, "tle": {"line1": "1 30678U 99025AQL 25359.86194087  .00006698  00000+0  28419-2 0  9990", "line2": "2 30678  99.0798 321.0556 0070932 192.0009 223.3605 14.24329193960624"}}, "geometry": {"type": "Point", "coordinates": [-39.22831362479234, 8.903798863070064]}}, {"type": "Feature", "properties": {"norad_id": 30679, "name": "FENGYUN 1C DEB", "group": "fengyun-1c-debris", "lat": 10.93224435222595, "lon": 50.77164927605777, "alt_km": 856.8903742764096, "timestamp": "2025-12-26T23:26:42.406326+00:00", "meta": {"OBJECT_NAME": "FENGYUN 1C DEB", "OBJECT_ID": "1999-025AQM", "EPOCH": "2025-12-26T02:39:37.423584", "MEAN_MOTION": 13.79734113, "ECCENTRICITY": 0.01709817, "INCLINATION": 99.3802, "RA_OF_ASC_NODE": 51.743, "ARG_OF_PERICENTER": 43.5099, "MEAN_ANOMALY": 349.331, "EPHEMERIS_TYPE": 0, "CLASSIFICATION_TYPE": "U", "NORAD_CAT_ID": 30679, "ELEMENT_SET_NO": 999, "REV_AT_EPOCH": 94704, "BSTAR": 0.0006088305, "MEAN_MOTION_DOT": 6.59e-06, "MEAN_MOTION_DDOT": 0}, "tle": {"line1": "1 30679U 99025AQM 25360.11084981  .00000659  00000+0  60883-3 0  9995", "line2": "2 30679  99.3802  51.7430 0170981  43.5099 349.3310 13.79734113947040"}}, "geometry": {"type": "Point", "coordinates": [50.77164927605777, 10.93224435222595]}}, {"type": "Feature", "properties": {"norad_id": 30680, "name": "FENGYUN 1C DEB", "group": "fengyun-1c-debris", "lat": 69.85026725931738, "lon": -109.1431494775159, "alt_km": 814.734074224225, "timestamp": "2025-12-26T23:26:42.406335+00:00", "meta": {"OBJECT_NAME": "FENGYUN 1C DEB", "OBJECT_ID": "1999-025AQN", "EPOCH": "2025-12-26T08:45:27.730656", "MEAN_MOTION": 13.56229164, "ECCENTRICITY": 0.0335528, "INCLINATION": 99.6307, "RA_OF_ASC_NODE": 42.6944, "ARG_OF_PERICENTER": 134.0073, "MEAN_ANOMALY": 228.9246, "EPHEMERIS_TYPE": 0, "CLASSIFICATION_TYPE": "U", "NORAD_CAT_ID": 30680, "ELEMENT_SET_NO": 999, "REV_AT_EPOCH": 92438, "BSTAR": 0.0044896844, "MEAN_MOTION_DOT": 4.494e-05, "MEAN_MOTION_DDOT": 0}, "tle": {"line1": "1 30680U 99025AQN 25360.36490429  .00004494  00000+0  44897-2 0  9999", "line2": "2 30680  99.6307  42.6944 0335528 134.0073 228.9246 13.56229164924384"}}, "geometry": {"type": "Point", "coordinates": [-109.1431494775159, 69.85026725931738]}}, {"type": "Feature", "properties": {"norad_id": 30683, "name": "FENGYUN 1C DEB", "group": "fengyun-1c-debris", "lat": 16.580731238949152, "lon": -164.25512402646726, "alt_km": 799.7665202866492, "timestamp": "2025-12-26T23:26:42.406344+00:00", "meta": {"OBJECT_NAME": "FENGYUN 1C DEB", "OBJECT_ID": "1999-025AQR", "EPOCH": "2025-12-25T13:06:58.710240", "MEAN_MOTION": 14.00429844, "ECCENTRICITY": 0.0138248, "INCLINATION": 99.4266, "RA_OF_ASC_NODE": 11.4351, "ARG_OF_PERICENTER": 189.5826, "MEAN_ANOMALY": 326.7246, "EPHEMERIS_TYPE": 0, "CLASSIFICATION_TYPE": "U", "NORAD_CAT_ID": 30683, "ELEMENT_SET_NO": 999, "REV_AT_EPOCH": 95730, "BSTAR": 0.001076, "MEAN_MOTION_DOT": 1.686e-05, "MEAN_MOTION_DDOT": 0}, "tle": {"line1": "1 30683U 99025AQR 25359.54651285  .00001686  00000+0  10760-2 0  9991", "line2": "2 30683  99.4266  11.4351 0138248 189.5826 326.7246 14.00429844957308"}}, "geometry": {"type": "Point", "coordinates": [-164.25512402646726, 16.580731238949152]}}, {"type": "Feature", "properties": {"norad_id": 30684, "name": "FENGYUN 1C DEB", "group": "fengyun-1c-debris", "lat": 56.8708801618163, "lon": 27.24626404206598, "alt_km": 1179.192642004169, "timestamp": "2025-12-26T23:26:42.406353+00:00", "meta": {"OBJECT_NAME": "FENGYUN 1C DEB", "OBJECT_ID": "1999-025AQS", "EPOCH": "2025-12-25T13:46:12.707616", "MEAN_MOTION": 13.66832566, "ECCENTRICITY": 0.023623, "INCLINATION": 99.5309, "RA_OF_ASC_NODE": 40.7807, "ARG_OF_PERICENTER": 236.4133, "MEAN_ANOMALY": 121.4261, "EPHEMERIS_TYPE": 0, "CLASSIFICATION_TYPE": "U", "NORAD_CAT_ID": 30684, "ELEMENT_SET_NO": 999, "REV_AT_EPOCH": 93804, "BSTAR": 0.0010195, "MEAN_MOTION_DOT": 9.85e-06, "MEAN_MOTION_DDOT": 0}, "tle": {"line1": "1 30684U 99025AQS 25359.57375819  .00000985  00000+0  10195-2 0  9994", "line2": "2 30684  99.5309  40.7807 0236230 236.4133 121.4261 13.66832566938049"}}, "geometry": {"type": "Point", "coordinates": [27.24626404206598, 56.8708801618163]}}, {"type": "Feature", "properties": {"norad_id": 30686, "name": "FENGYUN 1C DEB", "group": "fengyun-1c-debris", "lat": 78.26240396148299, "lon": 146.53053056006752, "alt_km": 540.2348541099855, "timestamp": "2025-12-26T23:26:42.406362+00:00", "meta": {"OBJECT_NAME": "FENGYUN 1C DEB", "OBJECT_ID": "1999-025AQU", "EPOCH": "2025-12-25T00:31:59.014848", "MEAN_MOTION": 14.73999147, "ECCENTRICITY": 0.01440618, "INCLINATION": 99.0328, "RA_OF_ASC_NODE": 194.3169, "ARG_OF_PERICENTER": 82.5561, "MEAN_ANOMALY": 73.5306, "EPHEMERIS_TYPE": 0, "CLASSIFICATION_TYPE": "U", "NORAD_CAT_ID": 30686, "ELEMENT_SET_NO": 999, "REV_AT_EPOCH": 99782, "BSTAR": 0.00068849051, "MEAN_MOTION_DOT": 5.279e-05, "MEAN_MOTION_DDOT": 0}, "tle": {"line1": "1 30686U 99025AQU 25359.02221082  .00005279  00000+0  68849-3 0  9999", "line2": "2 30686  99.0328 194.3169 0144061  82.5561  73.5306 14.73999147997825"}}, "geometry": {"type": "Point", "coordinates": [146.53053056006752, 78.26240396148299]}}, {"type": "Feature", "properties": {"norad_id": 30688, "name": "FENGYUN 1C DEB", "group": "fengyun-1c-debris", "lat": 81.24002122753278, "lon": -9.149103004614146, "alt_km": 786.3579276535793, "timestamp": "2025-12-26T23:26:42.406371+00:00", "meta": {"OBJECT_NAME": "FENGYUN 1C DEB", "OBJECT_ID": "1999-025AQW", "EPOCH": "2025-12-26T11:23:02.031648", "MEAN_MOTION": 14.32810641, "ECCENTRICITY": 0.00160449, "INCLINATION": 98.7, "RA_OF_ASC_NODE": 73.9048, "ARG_OF_PERICENTER": 272.6562, "MEAN_ANOMALY": 105.6187, "EPHEMERIS_TYPE": 0, "CLASSIFICATION_TYPE": "U", "NORAD_CAT_ID": 30688, "ELEMENT_SET_NO": 999, "REV_AT_EPOCH": 97457, "BSTAR": 0.0016135147, "MEAN_MOTION_DOT": 4.363e-05, "MEAN_MOTION_DDOT": 0}, "tle": {"line1": "1 30688U 99025AQW 25360.47432907  .00004363  00000+0  16135-2 0  9995", "line2": "2 30688  98.7000  73.9048 0016044 272.6562 105.6187 14.32810641974577"}}, "geometry": {"type": "Point", "coordinates": [-9.149103004614146, 81.24002122753278]}}, {"type": "Feature", "properties": {"norad_id": 30689, "name": "FENGYUN 1C DEB", "group": "fengyun-1c-debris", "lat": 81.23181548446048, "lon": -109.56984851016743, "alt_km": 774.0762165493725, "timestamp": "2025-12-26T23:26:42.406380+00:00", "meta": {"OBJECT_NAME": "FENGYUN 1C DEB", "OBJECT_ID": "1999-025AQX", "EPOCH": "2025-12-26T11:41:10.275072", "MEAN_MOTION": 14.1178781, "ECCENTRICITY": 0.01117671, "INCLINATION": 98.7095, "RA_OF_ASC_NODE": 346.3221, "ARG_OF_PERICENTER": 64.5857, "MEAN_ANOMALY": 57.0147, "EPHEMERIS_TYPE": 0, "CLASSIFICATION_TYPE": "U", "NORAD_CAT_ID": 30689, "ELEMENT_SET_NO": 999, "REV_AT_EPOCH": 97084, "BSTAR": 0.0004439774, "MEAN_MOTION_DOT": 8.17e-06, "MEAN_MOTION_DDOT": 0}, "tle": {"line1": "1 30689U 99025AQX 25360.48692448  .00000817  00000+0  44398-3 0  9998", "line2": "2 30689  98.7095 346.3221 0111767  64.5857  57.0147 14.11787810970845"}}, "geometry": {"type": "Point", "coordinates": [-109.56984851016743, 81.23181548446048]}}]}